     3.00           N                   E                   RINEX VERSION / TYPE
BRD_USR             ESA                 20190102 221927  UTCPGM / RUN BY / DATE
 GAL   3.8500E+01  7.8125E-03  5.7983E-04  0.0000E+00       IONOSPHERIC CORR
GAUT  9.3132257462E-10-8.881784197E-16 259200 2034 GSTB   0 TIME SYSTEM CORR
GPGA -2.2700987756E-09-1.154631946E-14 345600 2034 GSTB   0 TIME SYSTEM CORR
                                                            END OF HEADER
E05 2019 01 02 20 20 00 1.318165450357E-04-6.536993168993E-12 0.000000000000E+00
     4.200000000000E+01-1.834375000000E+01 3.790515033023E-09-7.285470134217E-01
    -9.778887033463E-07 1.524005783722E-04 4.824250936508E-06 5.440604017258E+03
     3.324000000000E+05 2.607703208923E-08 1.366567642296E+00 1.490116119385E-08
     9.521664386055E-01 2.357187500000E+02 1.481682664682E+00-5.792026975458E-09
    -1.264338379054E-10 2.580000000000E+02 2.034000000000E+03 0.000000000000E+00
     3.120000000000E+00 0.000000000000E+00-1.629814505577E-09 0.000000000000E+00
     3.331000000000E+05 0.000000000000E+00 0.000000000000E+00 0.000000000000E+00
E07 2019 01 02 20 20 00-1.052574370988E-04-7.062794793455E-12 0.000000000000E+00
     4.200000000000E+01-2.256250000000E+01 3.783014720605E-09-1.708240262812E+00
    -1.182779669762E-06 1.584999263287E-04 4.287809133530E-06 5.440606288910E+03
     3.324000000000E+05 1.862645149231E-08 1.366585067113E+00 9.313225746155E-09
     9.521957993714E-01 2.416250000000E+02 1.034971736099E-01-5.877744831665E-09
    -8.107480566251E-11 2.580000000000E+02 2.034000000000E+03 0.000000000000E+00
     3.120000000000E+00 0.000000000000E+00 4.656612873077E-10 0.000000000000E+00
     3.331000000000E+05 0.000000000000E+00 0.000000000000E+00 0.000000000000E+00
E12 2019 01 02 20 20 00 5.855443538167E-03 8.431300102529E-11 0.000000000000E+00
     4.200000000000E+01-1.571875000000E+02 2.434744274015E-09-9.315148424751E-01
    -7.251277565956E-06 3.646843833849E-04 1.032277941704E-05 5.440610788345E+03
     3.324000000000E+05-9.313225746155E-08-7.386997453523E-01-1.676380634308E-08
     9.820564267749E-01 1.296250000000E+02-9.153394084747E-01-5.256290374164E-09
    -1.021471119801E-10 2.580000000000E+02 2.034000000000E+03 0.000000000000E+00
     3.120000000000E+00 0.000000000000E+00-1.536682248116E-08 0.000000000000E+00
     3.331000000000E+05 0.000000000000E+00 0.000000000000E+00 0.000000000000E+00
E13 2019 01 02 20 20 00 3.812554641627E-04 4.831690603169E-13 0.000000000000E+00
     4.200000000000E+01-1.612187500000E+02 2.419029333710E-09 2.118460186233E+00
    -7.528811693192E-06 3.314518835396E-04 8.916482329369E-06 5.440606449127E+03
     3.324000000000E+05 2.048909664154E-08-7.439909605870E-01 5.960464477539E-08
     9.852835070243E-01 1.618125000000E+02-1.621102675331E+00-5.270933841266E-09
    -6.750281176306E-11 2.580000000000E+02 2.034000000000E+03 0.000000000000E+00
     3.120000000000E+00 5.600000000000E+01-4.656612873077E-09 0.000000000000E+00
     3.331000000000E+05 0.000000000000E+00 0.000000000000E+00 0.000000000000E+00
E15 2019 01 02 20 20 00 9.240356157534E-04-1.023181539495E-12 0.000000000000E+00
     4.200000000000E+01-1.734687500000E+02 2.444744690572E-09 2.979284995544E+00
    -8.005648851395E-06 3.833333030343E-04 8.637085556984E-06 5.440600376129E+03
     3.324000000000E+05-6.891787052155E-08-7.440018359200E-01-2.607703208923E-08
     9.852419265038E-01 1.691562500000E+02-1.699750930180E+00-5.229146386365E-09
    -1.071473202588E-10 2.580000000000E+02 2.034000000000E+03 0.000000000000E+00
     3.120000000000E+00 5.600000000000E+01 1.396983861923E-09 0.000000000000E+00
     3.331000000000E+05 0.000000000000E+00 0.000000000000E+00 0.000000000000E+00
E18 2019 01 02 20 20 00 5.635712994263E-03-2.850697455870E-11 0.000000000000E+00
     4.200000000000E+01-1.766875000000E+02 4.035525238682E-09-2.204753819201E+00
    -6.727874279022E-06 1.663762802491E-01-2.384185791016E-07 5.289381542206E+03
     3.324000000000E+05 1.870095729828E-06-1.321189142088E+00 3.390014171600E-07
     8.818093875405E-01 2.770000000000E+02 1.435103970389E+00-5.551302662610E-09
     4.421612749348E-10 2.580000000000E+02 2.034000000000E+03 0.000000000000E+00
     3.120000000000E+00 5.600000000000E+01 1.443549990654E-08 0.000000000000E+00
     3.331000000000E+05 0.000000000000E+00 0.000000000000E+00 0.000000000000E+00
E19 2019 01 02 20 20 00-9.420793503523E-06 2.842170943040E-13 0.000000000000E+00
     4.200000000000E+01-2.203125000000E+01 3.650866358952E-09 1.020807990007E+00
    -1.000240445137E-06 1.352780964226E-04 4.660338163376E-06 5.440606838226E+03
     3.324000000000E+05-5.774199962616E-08 1.363282741673E+00 1.117587089539E-08
     9.579235259542E-01 2.399062500000E+02 2.166197393148E+00-5.754525413367E-09
    -1.489347751598E-10 2.580000000000E+02 2.034000000000E+03 0.000000000000E+00
     3.120000000000E+00 0.000000000000E+00-8.614733815193E-09 0.000000000000E+00
     3.331000000000E+05 0.000000000000E+00 0.000000000000E+00 0.000000000000E+00
E25 2019 01 02 20 20 00 1.935561827850E-03-1.139710548159E-11 0.000000000000E+00
     4.200000000000E+01 1.990937500000E+02 2.738328348081E-09 7.008881772059E-02
     9.257346391678E-06 2.222447656095E-04 6.034970283508E-06 5.440630907059E+03
     3.324000000000E+05-8.754432201385E-08-2.827022720501E+00-2.607703208923E-08
     9.898885902731E-01 2.250937500000E+02-1.388650977333E+00-5.498800475683E-09
     3.210848030423E-10 2.580000000000E+02 2.034000000000E+03 0.000000000000E+00
     3.120000000000E+00 0.000000000000E+00-1.164153218269E-09 0.000000000000E+00
     3.331000000000E+05 0.000000000000E+00 0.000000000000E+00 0.000000000000E+00
E30 2019 01 02 20 20 00 5.219996906817E-03-3.042543994525E-11 0.000000000000E+00
     4.200000000000E+01 1.795000000000E+02 2.700469628257E-09 2.889200675582E+00
     8.281320333481E-06 2.919913968071E-04 6.755813956261E-06 5.440620662689E+03
     3.324000000000E+05-7.823109626770E-08-2.820984235008E+00-5.774199962616E-08
     9.878700207973E-01 2.048750000000E+02 4.842708865234E-01-5.473799434289E-09
     1.839362331110E-10 2.580000000000E+02 2.034000000000E+03 0.000000000000E+00
     3.120000000000E+00 0.000000000000E+00-2.793967723846E-09 0.000000000000E+00
     3.331000000000E+05 0.000000000000E+00 0.000000000000E+00 0.000000000000E+00
E31 2019 01 02 20 20 00 9.426604374312E-04-9.762857189344E-12 0.000000000000E+00
     4.200000000000E+01 1.811562500000E+02 2.683683214749E-09 1.787325135803E+00
     8.432194590569E-06 2.622519386932E-04 5.370005965233E-06 5.440630643845E+03
     3.324000000000E+05 5.401670932770E-08-2.827045338677E+00-9.313225746155E-09
     9.898596800860E-01 2.366250000000E+02-1.535183032981E+00-5.474870907492E-09
     1.864363372504E-10 2.580000000000E+02 2.034000000000E+03 0.000000000000E+00
     3.120000000000E+00 0.000000000000E+00-2.328306436539E-10 0.000000000000E+00
     3.331000000000E+05 0.000000000000E+00 0.000000000000E+00 0.000000000000E+00
E33 2019 01 02 20 20 00 8.478553500026E-04 4.263256414561E-14 0.000000000000E+00
     4.200000000000E+01-1.447500000000E+02 2.516533395146E-09 4.627029682473E-01
    -6.815418601036E-06 3.521599574015E-04 9.797513484955E-06 5.440599325180E+03
     3.324000000000E+05 3.166496753693E-08-7.440256800217E-01-4.470348358154E-08
     9.852798980054E-01 1.440937500000E+02-1.539013907798E+00-5.293791936254E-09
    -1.596495071856E-10 2.580000000000E+02 2.034000000000E+03 0.000000000000E+00
     3.120000000000E+00 5.600000000000E+01-7.916241884232E-09 0.000000000000E+00
     3.331000000000E+05 0.000000000000E+00 0.000000000000E+00 0.000000000000E+00
E36 2019 01 02 20 20 00 7.642767159268E-04-4.504840944719E-12 0.000000000000E+00
     4.200000000000E+01-1.794062500000E+02 2.499746981638E-09-1.784451382454E+00
    -8.292496204376E-06 3.233783645555E-04 1.016631722450E-05 5.440604486465E+03
     3.324000000000E+05 3.539025783539E-08-7.440003481323E-01 2.048909664154E-08
     9.852874817728E-01 1.337500000000E+02-1.646273819353E+00-5.341293914902E-09
    -8.714648714384E-11 2.580000000000E+02 2.034000000000E+03 0.000000000000E+00
     3.120000000000E+00 5.600000000000E+01 1.164153218269E-09 0.000000000000E+00
     3.331000000000E+05 0.000000000000E+00 0.000000000000E+00 0.000000000000E+00
E01 2019 01 02 20 20 00-5.123918526806E-04-8.100187187665E-12 0.000000000000E+00
     4.200000000000E+01 1.779375000000E+02 2.720470461372E-09 1.914027872315E+00
     8.460134267807E-06 1.189081231132E-04 5.412846803665E-06 5.440623874664E+03
     3.324000000000E+05 5.215406417847E-08-2.824406778668E+00 1.490116119385E-08
     9.903193274836E-01 2.361562500000E+02-8.944145714313E-01-5.487371428189E-09
     1.578637185147E-10 5.210000000000E+02 2.034000000000E+03 0.000000000000E+00
     3.120000000000E+00 0.000000000000E+00-4.889443516731E-09-5.355104804039E-09
     3.331150000000E+05 0.000000000000E+00 0.000000000000E+00 0.000000000000E+00
E04 2019 01 02 20 20 00-1.919195055962E-04-7.872813512222E-12 0.000000000000E+00
     4.200000000000E+01-2.059375000000E+01 3.722655063526E-09 5.422919394017E-01
    -9.424984455109E-07 8.298817556351E-05 4.880130290985E-06 5.440603904724E+03
     3.324000000000E+05-1.117587089539E-08 1.366634837049E+00 3.166496753693E-08
     9.521962075255E-01 2.296562500000E+02 1.784048761066E+00-5.768454565001E-09
    -1.310768884500E-10 2.580000000000E+02 2.034000000000E+03 0.000000000000E+00
     3.120000000000E+00 0.000000000000E+00-8.149072527885E-09 0.000000000000E+00
     3.332500000000E+05 0.000000000000E+00 0.000000000000E+00 0.000000000000E+00
